BEESAT-4                
1 41619U 16040W   23031.88858456  .00032783  00000+0  79897-3 0  9998
2 41619  97.1852  82.1926 0007687  24.2432 335.9175 15.40808455355767
RAVAN                   
1 41849U 16067B   23032.14677109  .00007011  00000+0  52439-3 0  9995
2 41849  98.0172 181.3225 0016506 285.6839  74.2564 15.02992668340313
CELTEE 1                
1 41850U 16067C   23031.87379549  .00004373  00000+0  35824-3 0  9990
2 41850  98.0242 175.2429 0004737 321.7776  38.3110 14.99825477339972
OPTICUBE 04             
1 41851U 16067D   23031.65167370  .00002340  00000+0  20002-3 0  9998
2 41851  98.0213 173.7232 0008072 301.0932  58.9497 14.98663669339874
AEROCUBE 8D             
1 41852U 16067E   23031.86789426  .00004776  00000+0  38994-3 0  9998
2 41852  98.0201 174.2041 0005190 320.2284  39.8558 14.99906057339910
AEROCUBE 8C             
1 41853U 16067F   23031.85304500  .00004287  00000+0  35078-3 0  9991
2 41853  98.0169 173.9875 0007721 283.8072  76.2291 14.99872623339905
PROMETHEUS 2-1          
1 41854U 16067G   23032.18066763  .00007132  00000+0  54486-3 0  9991
2 41854  98.0478 176.2721 0016928 316.5144  43.4744 15.02174953340040
PROMETHEUS 2-3          
1 41855U 16067H   23032.10550983  .00006433  00000+0  49265-3 0  9998
2 41855  98.0381 176.2007 0015000 327.4904  32.5394 15.02149071340038
INS-1B                  
1 41954U 17008G   23032.12780199  .00029729  00000+0  73218-3 0  9998
2 41954  97.2265  92.9920 0006639 127.4337 232.7515 15.40517530331821
BGUSAT                  
1 41999U 17008BD  23032.19296233  .00299112  00000+0  16978-2 0  9999
2 41999  97.2487 110.1155 0001709 335.5409  24.5776 15.78199976332114
DIDO-2                  
1 42000U 17008BE  23032.14697343  .00014671  00000+0  45923-3 0  9993
2 42000  97.2259  90.8302 0007094 153.4107 206.7501 15.33185645331048
PEASSS                  
1 42015U 17008BV  23032.13747885  .00024349  00000+0  62446-3 0  9997
2 42015  97.2331  96.2858 0004838 140.7033 219.4565 15.39331433331844
AL-FARABI 1             
1 42016U 17008BW  23031.90840439  .00043913  00000+0  88796-3 0  9995
2 42016  97.2390 100.7438 0003637 136.7009 223.4527 15.46331031332182
NAYIF-1 (EO-88)         
1 42017U 17008BX  23032.15036601  .00045276  00000+0  90255-3 0  9999
2 42017  97.2392 101.0470 0003713 136.1367 224.0179 15.46740346332252
UCLSAT                  
1 42765U 17036A   23032.06984161  .00026275  00000+0  71093-3 0  9990
2 42765  97.1678  73.1562 0006968 213.7555 146.3247 15.37651724312289
LITUANICASAT-2          
1 42768U 17036D   23031.37264617  .00104259  00000+0  13762-2 0  9990
2 42768  97.1724  78.9341 0006676 188.2821 171.8326 15.58006721312409
AALTO-1                 
1 42775U 17036L   23032.08749396  .00012527  00000+0  43568-3 0  9993
2 42775  97.1726  66.4547 0009903 227.2956 132.7452 15.29801234311672
URSA MAIOR              
1 42776U 17036M   23032.08662926  .00013813  00000+0  46426-3 0  9992
2 42776  97.1736  67.4745 0009545 224.5675 135.4800 15.30892732311723
COMPASS 2               
1 42777U 17036N   23031.36469128  .00046595  00000+0  96552-3 0  9990
2 42777  97.1735  76.2809 0006734 197.6104 162.4913 15.45584293312166
DIAMOND RED             
1 42783U 17036U   23032.09105830  .00015836  00000+0  50109-3 0  9997
2 42783  97.1729  70.3186 0007897 226.8257 133.2327 15.32817893311899
PEGASUS                 
1 42784U 17036V   23032.10167944  .00022059  00000+0  63119-3 0  9994
2 42784  97.1713  72.1297 0007518 218.7149 141.3557 15.35939048312016
DIAMOND GREEN           
1 42785U 17036W   23032.08294036  .00017091  00000+0  53622-3 0  9993
2 42785  97.1729  70.3967 0007694 228.1050 131.9537 15.33075108311882
DIAMOND BLUE            
1 42786U 17036X   23032.08512059  .00016451  00000+0  51771-3 0  9994
2 42786  97.1732  70.3851 0007682 228.9984 131.0595 15.32986079311882
NUDTSAT                 
1 42787U 17036Y   23031.90764526  .00052118  00000+0  98605-3 0  9990
2 42787  97.1705  78.5677 0006044 196.0689 164.0377 15.48210211312236
SUCHAI                  
1 42788U 17036Z   23032.04757729  .00030855  00000+0  77745-3 0  9990
2 42788  97.1705  74.5643 0006733 210.2502 149.8356 15.39813568312236
SKCUBE                  
1 42789U 17036AA  23031.10810696  .00024053  00000+0  64595-3 0  9992
2 42789  97.1709  72.7265 0006847 216.6870 143.3907 15.37902320311957
VZLUSAT-1               
1 42790U 17036AB  23031.11558980  .00047143  00000+0  91155-3 0  9997
2 42790  97.1703  77.6616 0005424 200.7661 159.3370 15.47608381312255
ROBUSTA 1B              
1 42792U 17036AD  23032.05315347  .00029627  00000+0  76101-3 0  9992
2 42792  97.1701  74.4697 0006383 210.4042 149.6835 15.39234973312166
CICERO 6                
1 42793U 17036AE  23032.08815035  .00013564  00000+0  43868-3 0  9992
2 42793  97.1716  70.7102 0006672 226.1079 133.9613 15.32158391312014
CORVUS BC2              
1 42846U 17042X   23031.85656187  .00002719  00000+0  26165-3 0  9994
2 42846  97.3974 240.9888 0008205 319.5868  40.4743 14.93722601302360
CORVUS BC1              
1 42847U 17042Y   23031.52133015  .00002693  00000+0  25873-3 0  9995
2 42847  97.3975 241.0126 0007902 319.7100  40.3534 14.93808112302328
MIRATA                  
1 43015U 17073C   23032.21412768  .00008904  00000+0  60301-3 0  9995
2 43015  97.6522 284.2416 0226023 146.4689 215.1073 14.88166857281235
MAKERSAT 0              
1 43016U 17073D   23032.17972207  .00006728  00000+0  47652-3 0  9996
2 43016  97.6523 283.0761 0236883 153.4171 207.9425 14.85173107281093
CORVUS BC3              
1 43118U 18004H   23032.19982290  .00013471  00000+0  43774-3 0  9993
2 43118  97.3388 107.2439 0007154 272.3342  87.7080 15.32010816281179
MICROMAS-2A             
1 43131U 18004W   23032.16934343  .00097254  00000+0  13376-2 0  9996
2 43131  97.3504 119.1046 0005531 254.9614 105.1029 15.56933462281855
CICERO 7                
1 43143U 18004AJ  23032.19072875  .00024173  00000+0  56283-3 0  9990
2 43143  97.3551 116.5582 0003995 257.5691 102.5109 15.42273329281711
GOMX-4B                 
1 43196U 18015E   23031.86854348  .00010939  00000+0  36576-3 0  9994
2 43196  97.5581 179.3813 0015882 333.5114  26.5313 15.31055484278054
GOMX-4A                 
1 43197U 18015F   23032.21362677  .00013730  00000+0  42568-3 0  9994
2 43197  97.5576 181.2266 0015388 329.3210 153.7608 15.33427362278212
AEROCUBE 12A            
1 43556U 18046C   23031.93264714  .00058271  00000+0  87676-3 0  9996
2 43556  51.6313 140.7290 0003065 153.0662 207.0488 15.54259324254633
AEROCUBE 12B            
1 43557U 18046D   23032.03780212  .00041311  00000+0  77323-3 0  9990
2 43557  51.6333 150.3271 0004638 141.7750 218.3568 15.48272929254465
CP7 (DAVE)              
1 43615U 18070C   23031.44153916  .00550849  13337-3  10858-2 0  9992
2 43615  92.9904 196.4393 0004474 265.6886  94.3890 16.00067738246710
CUBEBEL-1 (BSUSAT-1)    
1 43666U 18083E   23032.17645368  .00020394  00000+0  72038-3 0  9995
2 43666  97.4000  63.7424 0009389 242.1124 158.9490 15.29197811236357
CICERO 10               
1 43690U 18088A   23031.37916756  .00014140  00000+0  48558-3 0  9992
2 43690  85.0365 164.6068 0012858  26.8693 333.3216 15.29920275234530
IRVINE01                
1 43693U 18088D   23031.76832194  .15730055 -15917-5  67726-3 0  9995
2 43693  84.9840 152.3214 0011771 313.8197  46.2135 16.42399369235651
PROXIMA I               
1 43694U 18088E   23031.34529627  .00015844  00000+0  51347-3 0  9992
2 43694  85.0300 160.7242 0015138 352.4086   7.6929 15.31762927234782
PROXIMA II              
1 43696U 18088G   23031.80823860  .00016413  00000+0  53270-3 0  9991
2 43696  85.0302 160.4459 0015001 350.6543   9.4422 15.31718328234841
FACSAT-1                
1 43721U 18096C   23032.22368061  .00060488  00000+0  10186-2 0  9992
2 43721  97.3280 118.4076 0010501 304.5941 110.4479 15.51449456233220
CENTAURI-2              
1 43722U 18096D   23032.20333592  .00134820  00000+0  13258-2 0  9997
2 43722  97.3318 122.6708 0010418 289.9151  70.0986 15.65513743233464
SIRION PATHFINDER-2     
1 43759U 18099B   23032.13879876  .00003075  00000+0  26864-3 0  9997
2 43759  97.5943  97.6987 0012592 207.5823 152.4732 14.97449950227253
CORVUS BC4              
1 43767U 18099K   23032.11695187  .00003350  00000+0  29694-3 0  9995
2 43767  97.5879  95.8431 0010382 213.2761 146.7809 14.96848247227166
MOVE-II                 
1 43780U 18099Y   23031.41570883  .00005683  00000+0  45706-3 0  9990
2 43780  97.6021  98.5224 0010950 232.0893 127.9342 15.00330710227202
SPACEBEE-7              
1 43816U 18099BL  23031.17957166  .00004856  00000+0  39746-3 0  9994
2 43816  97.5977  98.9616 0013221 204.2171 155.8433 14.99706617226754
SPACEBEE-5              
1 43817U 18099BM  23032.14496433  .00020187  00000+0  13380-2 0  9998
2 43817  97.6114 104.7939 0004709 195.8089 164.2992 15.07308618227133
SPACEBEE-6              
1 43818U 18099BN  23032.18897431  .00009138  00000+0  70373-3 0  9995
2 43818  97.6120 101.4392 0013353 214.0596 145.9773 15.01805019227123
SHIELDS 1               
1 43850U 18104B   23032.13066062  .00005379  00000+0  20831-3 0  9998
2 43850  85.0257 260.2577 0014969 133.9111 226.3372 15.25811264229346
STF-1                   
1 43852U 18104D   23032.11146155  .00018024  00000+0  56218-3 0  9999
2 43852  85.0263 259.5560 0012429 137.6552 222.5658 15.33026799229487
ZACUBE-2                
1 43907U 18111AH  23032.27182852  .00016626  00000+0  52432-3 0  9999
2 43907  97.1604 275.6400 0017678 350.8492 149.5812 15.32790646228270
LUME 1                  
1 43908U 18111AJ  23032.11224551  .00020666  00000+0  57235-3 0  9991
2 43908  97.1628 278.1067 0015007 342.7503  17.3230 15.36883928228424
AOBA VELOX-IV           
1 43940U 19003J   23032.07178467  .00125745  00000+0  15625-2 0  9997
2 43940  97.1011  68.2633 0011281  40.8905 319.3197 15.59493158225426
